start=new Date('2023-02-11T00:00:00.000Z').valueOf();
sats=[{"OBJECT_TYPE":"PAYLOAD","GP_ID":"225071611","SITE":"AFETR","INCLINATION":"53.2147","RCS_SIZE":"LARGE","MEAN_ANOMALY":"244.4252","PERIOD":"95.437","COUNTRY_CODE":"US","REV_AT_EPOCH":"4280","CENTER_NAME":"EARTH","DECAY_DATE":null,"MEAN_MOTION":"15.08853304","EPOCH":"2023-02-10T07:39:17.736192","EPHEMERIS_TYPE":"0","OBJECT_ID":"2022-049AY","PERIAPSIS":"538.639","LAUNCH_DATE":"2022-05-06","APOAPSIS":"540.771","CLASSIFICATION_TYPE":"U","OBJECT_NAME":"STARLINK-3884","BSTAR":"0.00141120000000","SEMIMAJOR_AXIS":"6917.840","RA_OF_ASC_NODE":"52.1354","ARG_OF_PERICENTER":"115.6899","FILE":"3785071","REF_FRAME":"TEME","TIME_SYSTEM":"UTC","NORAD_CAT_ID":"52497","MEAN_MOTION_DDOT":"0.0000000000000","ELEMENT_SET_NO":"999","TLE_LINE2":"2 52497  53.2147  52.1354 0001541 115.6899 244.4252 15.08853304 42805","MEAN_ELEMENT_THEORY":"SGP4","TLE_LINE1":"1 52497U 22049AY  23041.31895528  .00022251  00000-0  14112-2 0  9998","MEAN_MOTION_DOT":"0.00022251","ECCENTRICITY":"0.00015410"},{"MEAN_ELEMENT_THEORY":"SGP4","TLE_LINE1":"1 52498U 22049AZ  23041.49283125  .00045767  00000-0  28720-2 0  9999","MEAN_MOTION_DOT":"0.00045767","ECCENTRICITY":"0.00013230","RA_OF_ASC_NODE":"41.3443","ARG_OF_PERICENTER":"106.7875","FILE":"3785071","REF_FRAME":"TEME","NORAD_CAT_ID":"52498","TIME_SYSTEM":"UTC","TLE_LINE2":"2 52498  53.2182  41.3443 0001323 106.7875 253.3263 15.08879601 42963","MEAN_MOTION_DDOT":"0.0000000000000","ELEMENT_SET_NO":"999","EPOCH":"2023-02-10T11:49:40.620000","MEAN_MOTION":"15.08879601","DECAY_DATE":null,"EPHEMERIS_TYPE":"0","OBJECT_ID":"2022-049AZ","APOAPSIS":"540.540","LAUNCH_DATE":"2022-05-06","PERIAPSIS":"538.709","BSTAR":"0.00287200000000","SEMIMAJOR_AXIS":"6917.759","CLASSIFICATION_TYPE":"U","OBJECT_NAME":"STARLINK-3925","OBJECT_TYPE":"PAYLOAD","GP_ID":"225071862","RCS_SIZE":"LARGE","MEAN_ANOMALY":"253.3263","PERIOD":"95.435","INCLINATION":"53.2182","SITE":"AFETR","REV_AT_EPOCH":"4296","COUNTRY_CODE":"US","CENTER_NAME":"EARTH"},{"LAUNCH_DATE":"2022-05-06","APOAPSIS":"540.575","PERIAPSIS":"538.689","BSTAR":"0.00246670000000","SEMIMAJOR_AXIS":"6917.767","CLASSIFICATION_TYPE":"U","OBJECT_NAME":"STARLINK-3894","MEAN_MOTION":"15.08877060","EPOCH":"2023-02-10T12:20:08.542464","DECAY_DATE":null,"OBJECT_ID":"2022-049BA","EPHEMERIS_TYPE":"0","CENTER_NAME":"EARTH","REV_AT_EPOCH":"4283","COUNTRY_CODE":"US","GP_ID":"225072109","OBJECT_TYPE":"PAYLOAD","PERIOD":"95.435","RCS_SIZE":"LARGE","MEAN_ANOMALY":"257.5321","SITE":"AFETR","INCLINATION":"53.2148","ECCENTRICITY":"0.00013630","MEAN_ELEMENT_THEORY":"SGP4","TLE_LINE1":"1 52499U 22049BA  23041.51398776  .00039228  00000-0  24667-2 0  9993","MEAN_MOTION_DOT":"0.00039228","TLE_LINE2":"2 52499  53.2148  51.2601 0001363 102.5824 257.5321 15.08877060 42838","MEAN_MOTION_DDOT":"0.0000000000000","ELEMENT_SET_NO":"999","ARG_OF_PERICENTER":"102.5824","RA_OF_ASC_NODE":"51.2601","NORAD_CAT_ID":"52499","TIME_SYSTEM":"UTC","REF_FRAME":"TEME","FILE":"3785071"},{"ELEMENT_SET_NO":"999","MEAN_MOTION_DDOT":"0.0000000000000","TLE_LINE2":"2 52500  53.2176  41.3652 0001277  97.8071 262.3066 15.08869252 42960","RA_OF_ASC_NODE":"41.3652","ARG_OF_PERICENTER":"97.8071","FILE":"3785071","REF_FRAME":"TEME","NORAD_CAT_ID":"52500","TIME_SYSTEM":"UTC","ECCENTRICITY":"0.00012770","TLE_LINE1":"1 52500U 22049BB  23041.48915197  .00036840  00000-0  23189-2 0  9999","MEAN_ELEMENT_THEORY":"SGP4","MEAN_MOTION_DOT":"0.00036840","COUNTRY_CODE":"US","REV_AT_EPOCH":"4296","CENTER_NAME":"EARTH","OBJECT_TYPE":"PAYLOAD","GP_ID":"225071361","SITE":"AFETR","INCLINATION":"53.2176","RCS_SIZE":"LARGE","MEAN_ANOMALY":"262.3066","PERIOD":"95.436","PERIAPSIS":"538.773","LAUNCH_DATE":"2022-05-06","APOAPSIS":"540.539","OBJECT_NAME":"STARLINK-3866","CLASSIFICATION_TYPE":"U","BSTAR":"0.00231890000000","SEMIMAJOR_AXIS":"6917.791","DECAY_DATE":null,"MEAN_MOTION":"15.08869252","EPOCH":"2023-02-10T11:44:22.730208","EPHEMERIS_TYPE":"0","OBJECT_ID":"2022-049BB"},{"OBJECT_TYPE":"PAYLOAD","GP_ID":"225071112","RCS_SIZE":"LARGE","PERIOD":"95.438","MEAN_ANOMALY":"256.5330","SITE":"AFETR","INCLINATION":"53.2153","REV_AT_EPOCH":"4279","COUNTRY_CODE":"US","CENTER_NAME":"EARTH","MEAN_MOTION":"15.08837375","EPOCH":"2023-02-10T05:54:41.535648","DECAY_DATE":null,"EPHEMERIS_TYPE":"0","OBJECT_ID":"2022-049BC","APOAPSIS":"540.756","LAUNCH_DATE":"2022-05-06","PERIAPSIS":"538.751","SEMIMAJOR_AXIS":"6917.888","BSTAR":"0.00044662000000","OBJECT_NAME":"STARLINK-3907","CLASSIFICATION_TYPE":"U","RA_OF_ASC_NODE":"52.4632","ARG_OF_PERICENTER":"103.5824","REF_FRAME":"TEME","FILE":"3785071","NORAD_CAT_ID":"52501","TIME_SYSTEM":"UTC","TLE_LINE2":"2 52501  53.2153  52.4632 0001449 103.5824 256.5330 15.08837375 42790","ELEMENT_SET_NO":"999","MEAN_MOTION_DDOT":"0.0000000000000","TLE_LINE1":"1 52501U 22049BC  23041.24631407  .00006827  00000-0  44662-3 0  9995","MEAN_ELEMENT_THEORY":"SGP4","MEAN_MOTION_DOT":"0.00006827","ECCENTRICITY":"0.00014490"},{"CENTER_NAME":"EARTH","REV_AT_EPOCH":"4296","COUNTRY_CODE":"US","RCS_SIZE":"LARGE","PERIOD":"95.436","MEAN_ANOMALY":"273.5875","SITE":"AFETR","INCLINATION":"53.2175","GP_ID":"225072362","OBJECT_TYPE":"PAYLOAD","BSTAR":"0.00237250000000","SEMIMAJOR_AXIS":"6917.793","CLASSIFICATION_TYPE":"U","OBJECT_NAME":"STARLINK-3912","APOAPSIS":"540.403","LAUNCH_DATE":"2022-05-06","PERIAPSIS":"538.913","OBJECT_ID":"2022-049BD","EPHEMERIS_TYPE":"0","EPOCH":"2023-02-10T11:35:09.689856","MEAN_MOTION":"15.08868566","DECAY_DATE":null,"TLE_LINE2":"2 52502  53.2175  41.3867 0001077  86.5240 273.5875 15.08868566 42969","MEAN_MOTION_DDOT":"0.0000000000000","ELEMENT_SET_NO":"999","NORAD_CAT_ID":"52502","TIME_SYSTEM":"UTC","REF_FRAME":"TEME","FILE":"3785071","ARG_OF_PERICENTER":"86.5240","RA_OF_ASC_NODE":"41.3867","ECCENTRICITY":"0.00010770","MEAN_MOTION_DOT":"0.00037702","TLE_LINE1":"1 52502U 22049BD  23041.48275104  .00037702  00000-0  23725-2 0  9992","MEAN_ELEMENT_THEORY":"SGP4"},{"ELEMENT_SET_NO":"999","MEAN_MOTION_DDOT":"0.0000000000000","TLE_LINE2":"2 52503  53.2175  41.3817 0001107 100.1379 259.9738 15.08895240 42960","RA_OF_ASC_NODE":"41.3817","ARG_OF_PERICENTER":"100.1379","FILE":"3785071","REF_FRAME":"TEME","NORAD_CAT_ID":"52503","TIME_SYSTEM":"UTC","ECCENTRICITY":"0.00011070","TLE_LINE1":"1 52503U 22049BE  23041.48546399  .00054572  00000-0  34154-2 0  9992","MEAN_ELEMENT_THEORY":"SGP4","MEAN_MOTION_DOT":"0.00054572","REV_AT_EPOCH":"4296","COUNTRY_CODE":"US","CENTER_NAME":"EARTH","OBJECT_TYPE":"PAYLOAD","GP_ID":"225072609","INCLINATION":"53.2175","SITE":"AFETR","PERIOD":"95.434","RCS_SIZE":"LARGE","MEAN_ANOMALY":"259.9738","PERIAPSIS":"538.811","LAUNCH_DATE":"2022-05-06","APOAPSIS":"540.342","CLASSIFICATION_TYPE":"U","OBJECT_NAME":"STARLINK-3861","SEMIMAJOR_AXIS":"6917.712","BSTAR":"0.00341540000000","DECAY_DATE":null,"EPOCH":"2023-02-10T11:39:04.088736","MEAN_MOTION":"15.08895240","EPHEMERIS_TYPE":"0","OBJECT_ID":"2022-049BE"},{"OBJECT_ID":"2022-051A","EPHEMERIS_TYPE":"0","EPOCH":"2023-02-10T12:58:36.616512","MEAN_MOTION":"15.08858230","DECAY_DATE":null,"BSTAR":"0.00080692000000","SEMIMAJOR_AXIS":"6917.825","CLASSIFICATION_TYPE":"U","OBJECT_NAME":"STARLINK-3951","LAUNCH_DATE":"2022-05-13","APOAPSIS":"540.584","PERIAPSIS":"538.795","RCS_SIZE":"LARGE","MEAN_ANOMALY":"264.8126","PERIOD":"95.436","SITE":"AFWTR","INCLINATION":"53.2146","GP_ID":"225041406","OBJECT_TYPE":"PAYLOAD","CENTER_NAME":"EARTH","COUNTRY_CODE":"US","REV_AT_EPOCH":"4195","MEAN_MOTION_DOT":"0.00012584","TLE_LINE1":"1 52533U 22051A   23041.54070158  .00012584  00000-0  80692-3 0  9996","MEAN_ELEMENT_THEORY":"SGP4","ECCENTRICITY":"0.00012930","TIME_SYSTEM":"UTC","NORAD_CAT_ID":"52533","FILE":"3784728","REF_FRAME":"TEME","ARG_OF_PERICENTER":"95.3013","RA_OF_ASC_NODE":"131.1323","TLE_LINE2":"2 52533  53.2146 131.1323 0001293  95.3013 264.8126 15.08858230 41959","MEAN_MOTION_DDOT":"0.0000000000000","ELEMENT_SET_NO":"999"},{"APOAPSIS":"540.472","LAUNCH_DATE":"2022-05-13","PERIAPSIS":"538.935","SEMIMAJOR_AXIS":"6917.839","BSTAR":"0.00106970000000","CLASSIFICATION_TYPE":"U","OBJECT_NAME":"STARLINK-3952","MEAN_MOTION":"15.08853681","EPOCH":"2023-02-10T11:32:27.749472","DECAY_DATE":null,"EPHEMERIS_TYPE":"0","OBJECT_ID":"2022-051B","REV_AT_EPOCH":"4261","COUNTRY_CODE":"US","CENTER_NAME":"EARTH","OBJECT_TYPE":"PAYLOAD","GP_ID":"225071362","RCS_SIZE":"LARGE","PERIOD":"95.437","MEAN_ANOMALY":"279.2412","SITE":"AFWTR","INCLINATION":"53.2154","ECCENTRICITY":"0.00011110","MEAN_ELEMENT_THEORY":"SGP4","TLE_LINE1":"1 52534U 22051B   23041.48087673  .00016784  00000-0  10697-2 0  9993","MEAN_MOTION_DOT":"0.00016784","TLE_LINE2":"2 52534  53.2154 131.4008 0001111  80.8706 279.2412 15.08853681 42616","MEAN_MOTION_DDOT":"0.0000000000000","ELEMENT_SET_NO":"999","RA_OF_ASC_NODE":"131.4008","ARG_OF_PERICENTER":"80.8706","REF_FRAME":"TEME","FILE":"3785071","TIME_SYSTEM":"UTC","NORAD_CAT_ID":"52534"},{"ECCENTRICITY":"0.00007930","MEAN_ELEMENT_THEORY":"SGP4","TLE_LINE1":"1 52535U 22051C   23041.54344859 -.00003157  00000-0 -18045-3 0  9991","MEAN_MOTION_DOT":"-0.00003157","TLE_LINE2":"2 52535  53.2156 131.1217 0000793 104.8479 255.2601 15.08821168 41952","MEAN_MOTION_DDOT":"0.0000000000000","ELEMENT_SET_NO":"999","RA_OF_ASC_NODE":"131.1217","ARG_OF_PERICENTER":"104.8479","REF_FRAME":"TEME","FILE":"3784728","TIME_SYSTEM":"UTC","NORAD_CAT_ID":"52535","LAUNCH_DATE":"2022-05-13","APOAPSIS":"540.352","PERIAPSIS":"539.254","BSTAR":"-0.00018045000000","SEMIMAJOR_AXIS":"6917.938","CLASSIFICATION_TYPE":"U","OBJECT_NAME":"STARLINK-3958","EPOCH":"2023-02-10T13:02:33.958176","MEAN_MOTION":"15.08821168","DECAY_DATE":null,"EPHEMERIS_TYPE":"0","OBJECT_ID":"2022-051C","COUNTRY_CODE":"US","REV_AT_EPOCH":"4195","CENTER_NAME":"EARTH","OBJECT_TYPE":"PAYLOAD","GP_ID":"225041404","RCS_SIZE":"LARGE","MEAN_ANOMALY":"255.2601","PERIOD":"95.439","SITE":"AFWTR","INCLINATION":"53.2156"}];
